{
  "type": "FeatureCollection",
  "features": [
    {
      "type": "Feature",
      "properties": {
        "norad_id": 39773,
        "name": "EUTELSAT 3B",
        "group": "eutelsat",
        "lat": 0.02251505583556613,
        "lon": 158.61935570351196,
        "alt_km": 35782.482918406335,
        "timestamp": "2025-12-27T03:58:43.849031+00:00",
        "meta_object_name": "EUTELSAT 3B",
        "meta_object_id": "2014-030A",
        "meta_epoch": "2025-12-26T08:51:38.739168",
        "meta_mean_motion": 1.00270297,
        "meta_eccentricity": 0.0004298,
        "meta_inclination": 0.06,
        "meta_ra_of_asc_node": 352.4178,
        "meta_arg_of_pericenter": 243.3494,
        "meta_mean_anomaly": 355.3551,
        "meta_ephemeris_type": 0,
        "meta_classification_type": "U",
        "meta_norad_cat_id": 39773,
        "meta_element_set_no": 999,
        "meta_rev_at_epoch": 4233,
        "meta_bstar": 0,
        "meta_mean_motion_dot": 4.2e-07,
        "meta_mean_motion_ddot": 0,
        "tle_line1": "1 39773U 14030A   25360.36919837  .00000042  00000+0  00000+0 0  9993",
        "tle_line2": "2 39773   0.0600 352.4178 0004298 243.3494 355.3551  1.00270297 42336"
      },
      "geometry": {
        "type": "Point",
        "coordinates": [
          158.61935570351196,
          0.02251505583556613
        ]
      }
    },
    {
      "type": "Feature",
      "properties": {
        "norad_id": 40425,
        "name": "EUTELSAT 115 WEST B",
        "group": "eutelsat",
        "lat": -0.003692311787506768,
        "lon": 40.67459613021704,
        "alt_km": 35785.21532840968,
        "timestamp": "2025-12-27T03:58:43.849042+00:00",
        "meta_object_name": "EUTELSAT 115 WEST B",
        "meta_object_id": "2015-010B",
        "meta_epoch": "2025-12-26T05:44:38.581152",
        "meta_mean_motion": 1.00273604,
        "meta_eccentricity": 7.8e-06,
        "meta_inclination": 0.0077,
        "meta_ra_of_asc_node": 147.8651,
        "meta_arg_of_pericenter": 258.8043,
        "meta_mean_anomaly": 19.571,
        "meta_ephemeris_type": 0,
        "meta_classification_type": "U",
        "meta_norad_cat_id": 40425,
        "meta_element_set_no": 999,
        "meta_rev_at_epoch": 3965,
        "meta_bstar": 0,
        "meta_mean_motion_dot": -3e-08,
        "meta_mean_motion_ddot": 0,
        "tle_line1": "1 40425U 15010B   25360.23933543 -.00000003  00000+0  00000+0 0  9992",
        "tle_line2": "2 40425   0.0077 147.8651 0000078 258.8043  19.5710  1.00273604 39657"
      },
      "geometry": {
        "type": "Point",
        "coordinates": [
          40.67459613021704,
          -0.003692311787506768
        ]
      }
    },
    {
      "type": "Feature",
      "properties": {
        "norad_id": 40875,
        "name": "EUTELSAT 8 WEST B",
        "group": "eutelsat",
        "lat": 0.05835850936717882,
        "lon": 147.53424834610226,
        "alt_km": 35797.18809109076,
        "timestamp": "2025-12-27T03:58:43.849052+00:00",
        "meta_object_name": "EUTELSAT 8 WEST B",
        "meta_object_id": "2015-039B",
        "meta_epoch": "2025-12-26T14:42:28.524096",
        "meta_mean_motion": 1.00271395,
        "meta_eccentricity": 0.0004204,
        "meta_inclination": 0.0651,
        "meta_ra_of_asc_node": 12.1709,
        "meta_arg_of_pericenter": 263.5924,
        "meta_mean_anomaly": 32.208,
        "meta_ephemeris_type": 0,
        "meta_classification_type": "U",
        "meta_norad_cat_id": 40875,
        "meta_element_set_no": 999,
        "meta_rev_at_epoch": 3792,
        "meta_bstar": 0,
        "meta_mean_motion_dot": -4.4e-07,
        "meta_mean_motion_ddot": 0,
        "tle_line1": "1 40875U 15039B   25360.61283014 -.00000044  00000+0  00000+0 0  9990",
        "tle_line2": "2 40875   0.0651  12.1709 0004204 263.5924  32.2080  1.00271395 37923"
      },
      "geometry": {
        "type": "Point",
        "coordinates": [
          147.53424834610226,
          0.05835850936717882
        ]
      }
    },
    {
      "type": "Feature",
      "properties": {
        "norad_id": 41310,
        "name": "EUTELSAT 9B",
        "group": "eutelsat",
        "lat": 0.03435375897119871,
        "lon": 164.51410400369326,
        "alt_km": 35793.77264298736,
        "timestamp": "2025-12-27T03:58:43.849063+00:00",
        "meta_object_name": "EUTELSAT 9B",
        "meta_object_id": "2016-005A",
        "meta_epoch": "2025-12-26T08:43:38.553888",
        "meta_mean_motion": 1.00269907,
        "meta_eccentricity": 0.0004728,
        "meta_inclination": 0.0277,
        "meta_ra_of_asc_node": 48.2901,
        "meta_arg_of_pericenter": 227.4289,
        "meta_mean_anomaly": 319.2953,
        "meta_ephemeris_type": 0,
        "meta_classification_type": "U",
        "meta_norad_cat_id": 41310,
        "meta_element_set_no": 999,
        "meta_rev_at_epoch": 3638,
        "meta_bstar": 0,
        "meta_mean_motion_dot": 8.3e-07,
        "meta_mean_motion_ddot": 0,
        "tle_line1": "1 41310U 16005A   25360.36364067  .00000083  00000+0  00000+0 0  9991",
        "tle_line2": "2 41310   0.0277  48.2901 0004728 227.4289 319.2953  1.00269907 36382"
      },
      "geometry": {
        "type": "Point",
        "coordinates": [
          164.51410400369326,
          0.03435375897119871
        ]
      }
    },
    {
      "type": "Feature",
      "properties": {
        "norad_id": 41382,
        "name": "EUTELSAT 65 WEST A",
        "group": "eutelsat",
        "lat": 0.06420419930309423,
        "lon": 90.39815407355798,
        "alt_km": 35796.26104219319,
        "timestamp": "2025-12-27T03:58:43.849074+00:00",
        "meta_object_name": "EUTELSAT 65 WEST A",
        "meta_object_id": "2016-014A",
        "meta_epoch": "2025-12-26T08:16:36.677280",
        "meta_mean_motion": 1.00271228,
        "meta_eccentricity": 0.0002373,
        "meta_inclination": 0.0477,
        "meta_ra_of_asc_node": 347.1965,
        "meta_arg_of_pericenter": 291.4205,
        "meta_mean_anomaly": 235.4476,
        "meta_ephemeris_type": 0,
        "meta_classification_type": "U",
        "meta_norad_cat_id": 41382,
        "meta_element_set_no": 999,
        "meta_rev_at_epoch": 3580,
        "meta_bstar": 0,
        "meta_mean_motion_dot": -2.54e-06,
        "meta_mean_motion_ddot": 0,
        "tle_line1": "1 41382U 16014A   25360.34486895 -.00000254  00000+0  00000+0 0  9993",
        "tle_line2": "2 41382   0.0477 347.1965 0002373 291.4205 235.4476  1.00271228 35801"
      },
      "geometry": {
        "type": "Point",
        "coordinates": [
          90.39815407355798,
          0.06420419930309423
        ]
      }
    },
    {
      "type": "Feature",
      "properties": {
        "norad_id": 41589,
        "name": "EUTELSAT 117 WEST B",
        "group": "eutelsat",
        "lat": -0.019280609223473494,
        "lon": 38.56865300846001,
        "alt_km": 35786.05477660567,
        "timestamp": "2025-12-27T03:58:43.849084+00:00",
        "meta_object_name": "EUTELSAT 117 WEST B",
        "meta_object_id": "2016-038B",
        "meta_epoch": "2025-12-26T15:54:06.664032",
        "meta_mean_motion": 1.00272425,
        "meta_eccentricity": 4.1e-06,
        "meta_inclination": 0.0412,
        "meta_ra_of_asc_node": 183.1816,
        "meta_arg_of_pericenter": 48.2612,
        "meta_mean_anomaly": 345.4808,
        "meta_ephemeris_type": 0,
        "meta_classification_type": "U",
        "meta_norad_cat_id": 41589,
        "meta_element_set_no": 999,
        "meta_rev_at_epoch": 3493,
        "meta_bstar": 0,
        "meta_mean_motion_dot": 1.1e-07,
        "meta_mean_motion_ddot": 0,
        "tle_line1": "1 41589U 16038B   25360.66257713  .00000011  00000+0  00000+0 0  9998",
        "tle_line2": "2 41589   0.0412 183.1816 0000041  48.2612 345.4808  1.00272425 34936"
      },
      "geometry": {
        "type": "Point",
        "coordinates": [
          38.56865300846001,
          -0.019280609223473494
        ]
      }
    },
    {
      "type": "Feature",
      "properties": {
        "norad_id": 42741,
        "name": "EUTELSAT 172B",
        "group": "eutelsat",
        "lat": -0.01788136035546934,
        "lon": -32.428554816107614,
        "alt_km": 35786.67891555905,
        "timestamp": "2025-12-27T03:58:43.849095+00:00",
        "meta_object_name": "EUTELSAT 172B",
        "meta_object_id": "2017-029B",
        "meta_epoch": "2025-12-26T11:04:38.606880",
        "meta_mean_motion": 1.00270806,
        "meta_eccentricity": 8.4e-06,
        "meta_inclination": 0.0363,
        "meta_ra_of_asc_node": 152.095,
        "meta_arg_of_pericenter": 3.6927,
        "meta_mean_anomaly": 277.5771,
        "meta_ephemeris_type": 0,
        "meta_classification_type": "U",
        "meta_norad_cat_id": 42741,
        "meta_element_set_no": 999,
        "meta_rev_at_epoch": 3199,
        "meta_bstar": 0,
        "meta_mean_motion_dot": 1.6e-07,
        "meta_mean_motion_ddot": 0,
        "tle_line1": "1 42741U 17029B   25360.46155795  .00000016  00000+0  00000+0 0  9990",
        "tle_line2": "2 42741   0.0363 152.0950 0000084   3.6927 277.5771  1.00270806 31995"
      },
      "geometry": {
        "type": "Point",
        "coordinates": [
          -32.428554816107614,
          -0.01788136035546934
        ]
      }
    }
  ]
}